STARLINK-4789           
1 53868U 22114BC  26068.82093655 -.00000208  00000+0  50272-5 0  9991
2 53868  53.2161 263.4434 0001360  97.8997 262.2150 15.08837621193412
LEMUR-2-KREMPEL-BRO2    
1 63353U 25061C   26068.86379735  .00007837  00000+0  44347-3 0  9993
2 63353  97.5616  45.5365 0017925 236.8576 123.0936 15.13192951 52586
